{"fetched_at":"2026-03-30T06:02:59Z","count":15439,"tles":[{"name":"STARLINK-32820","line1":"1 63041U 25034N   26087.74583692  .00036041  00000+0  12223-2 0  9990","line2":"2 63041  53.1587 169.6592 0000739  81.3428 278.7657 15.30220282 62003","category":"Starlink"}]}